IRIDIUM 26              
1 24903U 97043A   25292.81368616  .00000799  00000+0  26167-3 0  9999
2 24903  86.3953  58.2182 0002193  87.5068 272.6380 14.37257834474646
IRIDIUM 22              
1 24907U 97043E   25293.12562367  .00000792  00000+0  26575-3 0  9993
2 24907  86.3950  61.7353 0002000  89.2130 270.9296 14.36059235474700
DUMMY MASS 1            
1 24925U 97048A   25292.90841389  .00000909  00000+0  98104-4 0  9995
2 24925  86.3311  77.6149 0008812  70.8544 289.3634 14.87105351523669
DUMMY MASS 2            
1 24926U 97048B   25292.68947149  .00000863  00000+0  93541-4 0  9991
2 24926  86.3308  79.3480 0009713  80.0155 280.2166 14.86855739523408
IRIDIUM 29              
1 24944U 97051A   25293.17325035  .00000911  00000+0  30345-3 0  9990
2 24944  86.3905  91.4387 0001932  93.2841 266.8577 14.36583484471212
IRIDIUM 33              
1 24946U 97051C   25293.15376176  .00000686  00000+0  23433-3 0  9991
2 24946  86.3821  90.7183 0009107  41.9324 318.2568 14.34976969470667
IRIDIUM 28              
1 24948U 97051E   25293.13745604  .00000878  00000+0  28690-3 0  9990
2 24948  86.3913  88.8960 0002437  79.2150 280.9322 14.37489306471797
IRIDIUM 36              
1 24967U 97056C   25293.08115315  .00000734  00000+0  23783-3 0  9999
2 24967  86.3927 120.5540 0002065  81.0156 279.1276 14.37710388470160
